NORAD_CAT_ID,OBJECT_NAME,OBJECT_TYPE,EPOCH,MEAN_MOTION,ECCENTRICITY,INCLINATION,RA_OF_ASC_NODE,ARG_OF_PERICENTER,MEAN_ANOMALY,BSTAR,MEAN_MOTION_DOT,MEAN_MOTION_DDOT,TLE_LINE0,TLE_LINE1,TLE_LINE2,SEMIMAJOR_AXIS,PERIOD,APOGEE,PERIGEE,DECAYED
55677.0,STARLINK-5324,PAYLOAD,2024-06-24 12:26:23,14.98334636,0.0003193,70.0001,275.6482,267.0109,93.0684,6.6675e-05,7.03e-06,0.0,0 STARLINK-5324,1 55677U 23021BB  24176.51832227  .00000703  00000-0  66675-4 0  9992,2 55677  70.0001 275.6482 0003193 267.0109  93.0684 14.98334636 76139,6950.179,96.107,574.263,569.824,0.0
55677.0,STARLINK-5324,PAYLOAD,2024-06-24 14:02:31,14.98335239,0.0003184,70.0001,275.4798,266.8945,93.1849,7.2528e-05,7.73e-06,0.0,0 STARLINK-5324,1 55677U 23021BB  24176.58508149  .00000773  00000-0  72528-4 0  9993,2 55677  70.0001 275.4798 0003184 266.8945  93.1849 14.98335239 76440,6950.177,96.107,574.255,569.829,0.0
55677.0,STARLINK-5324,PAYLOAD,2024-06-24 15:38:39,14.98336102,0.0003184,70.0001,275.3116,266.9362,93.1432,8.0038e-05,8.62e-06,0.0,0 STARLINK-5324,1 55677U 23021BB  24176.65184048  .00000862  00000-0  80038-4 0  9993,2 55677  70.0001 275.3116 0003184 266.9362  93.1432 14.98336102 76456,6950.174,96.107,574.252,569.826,0.0
55677.0,STARLINK-5324,PAYLOAD,2024-06-25 12:28:24,14.983285,0.0002861,70.0009,273.1245,253.6691,106.4153,-2.7562e-05,-4.22e-06,0.0,0 STARLINK-5324,1 55677U 23021BB  24177.51972639 -.00000422  00000-0 -27562-4 0  9997,2 55677  70.0009 273.1245 0002861 253.6691 106.4153 14.98328500 76284,6950.198,96.107,574.051,570.074,0.0
55677.0,STARLINK-5324,PAYLOAD,2024-06-25 14:04:32,14.98330245,0.0003085,70.0001,272.953,264.8906,95.1901,-0.00011734,-1.493e-05,0.0,0 STARLINK-5324,1 55677U 23021BB  24177.58648770 -.00001493  00000-0 -11734-3 0  9992,2 55677  70.0001 272.9530 0003085 264.8906  95.1901 14.98330245 76590,6950.192,96.107,574.201,569.913,0.0
55677.0,STARLINK-5324,PAYLOAD,2024-06-25 15:40:40,14.98331205,0.0003142,70.0003,272.785,263.9136,96.1665,-0.00010264,-1.318e-05,0.0,0 STARLINK-5324,1 55677U 23021BB  24177.65324758 -.00001318  00000-0 -10264-3 0  9990,2 55677  70.0003 272.7850 0003142 263.9136  96.1665 14.98331205 76601,6950.189,96.107,574.238,569.87,0.0
55677.0,STARLINK-5324,PAYLOAD,2024-06-26 10:54:17,14.98325484,0.0003589,69.9995,270.7658,274.1004,85.9744,-1.6289e-05,-2.87e-06,0.0,0 STARLINK-5324,1 55677U 23021BB  24178.45436754 -.00000287  00000-0 -16289-4 0  9997,2 55677  69.9995 270.7658 0003589 274.1004  85.9744 14.98325484 76724,6950.207,96.107,574.566,569.577,0.0
55677.0,STARLINK-5324,PAYLOAD,2024-06-27 12:32:27,14.98322889,0.0004053,69.9982,268.0739,274.4761,85.5935,-1.5809e-05,-2.82e-06,0.0,0 STARLINK-5324,1 55677U 23021BB  24179.52253533 -.00000282  00000-0 -15809-4 0  9990,2 55677  69.9982 268.0739 0004053 274.4761  85.5935 14.98322889 76588,6950.215,96.107,574.897,569.263,0.0
55677.0,STARLINK-5324,PAYLOAD,2024-06-27 15:44:42,14.98328233,0.0003348,69.9996,267.7384,267.9537,92.1239,6.1245e-05,6.38e-06,0.0,0 STARLINK-5324,1 55677U 23021BB  24179.65605028  .00000638  00000-0  61245-4 0  9992,2 55677  69.9996 267.7384 0003348 267.9537  92.1239 14.98328233 76602,6950.198,96.107,574.39,569.736,0.0
55677.0,STARLINK-5324,PAYLOAD,2024-06-28 12:34:25,14.98342653,0.0003384,69.9992,265.5506,263.5981,96.4793,0.00035136,4.103e-05,0.0,0 STARLINK-5324,1 55677U 23021BB  24180.52391166  .00004103  00000-0  35136-3 0  9995,2 55677  69.9992 265.5506 0003384 263.5981  96.4793 14.98342653 76733,6950.154,96.106,574.371,569.667,0.0
55677.0,STARLINK-5324,PAYLOAD,2024-06-28 14:10:33,14.98342436,0.0003319,69.9996,265.3816,265.625,94.453,0.00041216,4.83e-05,0.0,0 STARLINK-5324,1 55677U 23021BB  24180.59067052  .00004830  00000-0  41216-3 0  9999,2 55677  69.9996 265.3816 0003319 265.6250  94.4530 14.98342436 77040,6950.154,96.106,574.326,569.713,0.0
55677.0,STARLINK-5324,PAYLOAD,2024-06-28 15:46:41,14.98347864,0.0003216,69.9999,265.2121,263.2448,96.8345,0.00041234,4.833e-05,0.0,0 STARLINK-5324,1 55677U 23021BB  24180.65742568  .00004833  00000-0  41234-3 0  9991,2 55677  69.9999 265.2121 0003216 263.2448  96.8345 14.98347864 77051,6950.138,96.106,574.238,569.767,0.0
55677.0,STARLINK-5324,PAYLOAD,2024-06-29 04:35:47,14.98334353,0.000358,69.9993,263.8647,273.4056,86.6693,-1.0489e-05,-2.18e-06,0.0,0 STARLINK-5324,1 55677U 23021BB  24181.19152607 -.00000218  00000-0 -10489-4 0  9994,2 55677  69.9993 263.8647 0003580 273.4056  86.6693 14.98334353 76831,6950.179,96.107,574.533,569.556,0.0
55677.0,STARLINK-5324,PAYLOAD,2024-06-29 14:12:36,14.98333939,0.0003297,69.999,262.855,270.4045,89.6736,-5.7421e-07,-1e-06,0.0,0 STARLINK-5324,1 55677U 23021BB  24181.59208476 -.00000100  00000-0 -57421-6 0  9993,2 55677  69.9990 262.8550 0003297 270.4045  89.6736 14.98333939 77190,6950.181,96.107,574.337,569.754,0.0
55677.0,STARLINK-5324,PAYLOAD,2024-06-29 15:48:44,14.98335819,0.000335,69.9991,262.6863,271.332,88.7455,4.8857e-06,-3.5e-07,0.0,0 STARLINK-5324,1 55677U 23021BB  24181.65884321 -.00000035  00000-0  48857-5 0  9997,2 55677  69.9991 262.6863 0003350 271.3320  88.7455 14.98335819 77201,6950.175,96.107,574.368,569.712,0.0
55677.0,STARLINK-5324,PAYLOAD,2024-06-30 04:37:49,14.98330459,0.0003188,69.9995,261.3404,269.9448,90.1346,-0.00014051,-1.769e-05,0.0,0 STARLINK-5324,1 55677U 23021BB  24182.19292946 -.00001769  00000-0 -14051-3 0  9996,2 55677  69.9995 261.3404 0003188 269.9448  90.1346 14.98330459 76980,6950.191,96.107,574.272,569.841,0.0
55677.0,STARLINK-5324,PAYLOAD,2024-06-30 14:14:37,14.98332774,0.0003049,69.9994,260.3307,265.5187,94.5624,-0.00013991,-1.762e-05,0.0,0 STARLINK-5324,1 55677U 23021BB  24182.59348731 -.00001762  00000-0 -13991-3 0  9999,2 55677  69.9994 260.3307 0003049 265.5187  94.5624 14.98332774 77348,6950.184,96.107,574.168,569.93,0.0
55677.0,STARLINK-5324,PAYLOAD,2024-06-30 22:15:17,14.98341603,0.0003064,69.9995,259.4891,268.6441,91.4367,-0.00023875,-2.941e-05,0.0,0 STARLINK-5324,1 55677U 23021BB  24182.92728277 -.00002941  00000-0 -23875-3 0  9995,2 55677  69.9995 259.4891 0003064 268.6441  91.4367 14.98341603 77396,6950.157,96.106,574.152,569.892,0.0
55677.0,STARLINK-5324,PAYLOAD,2024-07-01 04:39:49,14.98329647,0.0002926,69.9993,258.8157,268.1785,91.9039,7.3227e-05,7.81e-06,0.0,0 STARLINK-5324,1 55677U 23021BB  24183.19432248  .00000781  00000-0  73227-4 0  9990,2 55677  69.9993 258.8157 0002926 268.1785  91.9039 14.98329647 77131,6950.194,96.107,574.093,570.025,0.0
55677.0,STARLINK-5324,PAYLOAD,2024-07-01 14:16:37,14.98330888,0.0002946,69.9993,257.8057,268.4755,91.6067,7.986e-05,8.6e-06,0.0,0 STARLINK-5324,1 55677U 23021BB  24183.59488167  .00000860  00000-0  79860-4 0  9992,2 55677  69.9993 257.8057 0002946 268.4755  91.6067 14.98330888 77497,6950.19,96.107,574.103,570.008,0.0
55677.0,STARLINK-5324,PAYLOAD,2024-07-01 22:17:18,14.98329607,0.0002963,69.9994,256.9641,269.7295,90.3524,6.2683e-05,6.55e-06,0.0,0 STARLINK-5324,1 55677U 23021BB  24183.92868293  .00000655  00000-0  62683-4 0  9998,2 55677  69.9994 256.9641 0002963 269.7295  90.3524 14.98329607 77546,6950.194,96.107,574.118,570.0,0.0
55677.0,STARLINK-5324,PAYLOAD,2024-07-02 04:41:50,14.98322429,0.0003009,69.999,256.2907,269.1933,90.8882,0.00010437,1.152e-05,0.0,0 STARLINK-5324,1 55677U 23021BB  24184.19572680  .00001152  00000-0  10437-3 0  9992,2 55677  69.9990 256.2907 0003009 269.1933  90.8882 14.98322429 77283,6950.216,96.107,574.173,569.99,0.0
55677.0,STARLINK-5324,PAYLOAD,2024-07-02 14:18:39,14.9832266,0.0003118,69.9992,255.2811,269.0987,90.9815,6.1846e-05,6.45e-06,0.0,0 STARLINK-5324,1 55677U 23021BB  24184.59628950  .00000645  00000-0  61846-4 0  9995,2 55677  69.9992 255.2811 0003118 269.0987  90.9815 14.98322660 77641,6950.216,96.107,574.248,569.914,0.0
55677.0,STARLINK-5324,PAYLOAD,2024-07-03 04:43:51,14.9832871,0.0003065,69.9989,253.7659,268.984,91.0967,4.7581e-06,-3.6e-07,0.0,0 STARLINK-5324,1 55677U 23021BB  24185.19712802 -.00000036  00000-0  47581-5 0  9998,2 55677  69.9989 253.7659 0003065 268.9840  91.0967 14.98328710 77436,6950.197,96.107,574.192,569.932,0.0
55677.0,STARLINK-5324,PAYLOAD,2024-07-03 22:21:20,14.9833196,0.0003389,69.9983,251.9129,269.9879,90.0892,1.0377e-05,3.1e-07,0.0,0 STARLINK-5324,1 55677U 23021BB  24185.93148428  .00000031  00000-0  10377-4 0  9993,2 55677  69.9983 251.9129 0003389 269.9879  90.0892 14.98331960 77846,6950.187,96.107,574.407,569.696,0.0
55677.0,STARLINK-5324,PAYLOAD,2024-07-04 04:45:52,14.98328041,0.0003163,69.9984,251.2395,269.934,90.1456,0.00010576,1.169e-05,0.0,0 STARLINK-5324,1 55677U 23021BB  24186.19852470  .00001169  00000-0  10576-3 0  9994,2 55677  69.9984 251.2395 0003163 269.9340  90.1456 14.98328041 77582,6950.199,96.107,574.262,569.866,0.0
55677.0,STARLINK-5324,PAYLOAD,2024-07-04 14:22:40,14.98334259,0.0003268,69.9983,250.2299,271.21,88.8684,8.3526e-05,9.04e-06,0.0,0 STARLINK-5324,1 55677U 23021BB  24186.59908133  .00000904  00000-0  83526-4 0  9998,2 55677  69.9983 250.2299 0003268 271.2100  88.8684 14.98334259 77944,6950.18,96.107,574.316,569.773,0.0
55677.0,STARLINK-5324,PAYLOAD,2024-07-05 04:47:53,14.98331892,0.0003208,69.9985,248.7149,271.595,88.4841,1.7123e-06,-7.3e-07,0.0,0 STARLINK-5324,1 55677U 23021BB  24187.19992476 -.00000073  00000-0  17123-5 0  9997,2 55677  69.9985 248.7149 0003208 271.5950  88.4841 14.98331892 77730,6950.187,96.107,574.282,569.822,0.0
55677.0,STARLINK-5324,PAYLOAD,2024-07-05 14:24:41,14.98337211,0.0003182,69.9985,247.7049,271.7081,88.3714,5.8766e-05,6.08e-06,0.0,0 STARLINK-5324,1 55677U 23021BB  24187.60047883  .00000608  00000-0  58766-4 0  9996,2 55677  69.9985 247.7049 0003182 271.7081  88.3714 14.98337211 78095,6950.171,96.107,574.247,569.824,0.0
55677.0,STARLINK-5324,PAYLOAD,2024-07-05 20:49:13,14.98331934,0.0003102,69.9987,247.0314,272.2085,87.8718,3.0001e-05,2.65e-06,0.0,0 STARLINK-5324,1 55677U 23021BB  24187.86752234  .00000265  00000-0  30001-4 0  9998,2 55677  69.9987 247.0314 0003102 272.2085  87.8718 14.98331934 78136,6950.187,96.107,574.208,569.896,0.0
